00540   10.71  0.15 K2175 261.90323  337.73031  202.11303    5.58268  0.0904510  0.29826633   2.2185364  0 MPO647015  3715  51 1904-2021 0.42 M-v 3Ek Pan        0000    (540) Rosamunde          20210907
00541   10.18  0.15 K2175 321.72074  359.26980  267.61997    6.00246  0.0497706  0.20875235   2.8143739  0 MPO647015  3938  49 1904-2021 0.42 M-v 3Ek Pan        0000    (541) Deborah            20210830
00542    9.45  0.15 K2175 194.81254  216.78517  152.94813   12.07714  0.1419460  0.19900875   2.9055026  0 MPO647015  3870  48 1904-2021 0.41 M-v 3Ek Pan        0000    (542) Susanna            20210901
00543    9.53  0.15 K2175 263.70409  108.81929  294.97200    8.47690  0.1534288  0.18408015   3.0605401  0 MPO647015  3024  59 1904-2021 0.42 M-v 3Ek Pan        0000    (543) Charlotte          20210908
00544   10.03  0.15 K2175  70.83261  343.14276  298.29587    8.37123  0.1533401  0.23627774   2.5913188  0 MPO647015  3195  47 1904-2021 0.40 M-v 3Ek Pan        0000    (544) Jetta              20210908
00545    8.81  0.15 K2175 254.51729  331.08799  333.59950   11.20624  0.1700100  0.17204096   3.2017062  0 MPO636068  3550  53 1904-2021 0.54 M-v 3Ek Pan        0000    (545) Messalina          20210711
00546    9.85  0.15 K2175 212.15877  109.68136   21.60727   14.85774  0.1148937  0.23518606   2.5993315  0 MPO647015  2775  48 1904-2021 0.42 M-v 3Ek Pan        0000    (546) Herodias           20210907
00547    9.81  0.15 K2175  99.23187  196.50875  193.05895   16.85905  0.2352006  0.21320593   2.7750439  0 MPO636068  3547  49 1904-2021 0.55 M-v 3Ek Pan        0000    (547) Praxedis           20210708
00548   11.30  0.15 K2175 282.97796  320.14310  108.41692    3.87155  0.1843111  0.28569615   2.2831430  0 MPO647015  3226  47 1904-2021 0.42 M-v 3Ek Pan        0000    (548) Kressida           20210907
00549   10.99  0.15 K2175 173.25688  157.93644  291.40745    3.96034  0.2579945  0.22424032   2.6832445  0 MPO647015  3294  41 1904-2021 0.42 M-v 3Ek Pan        0000    (549) Jessonda           20210908
00550    9.32  0.15 K2175  83.83008   45.06627  270.69231   10.10977  0.2230479  0.23676751   2.5877440  0 MPO647015  3121  57 1900-2021 0.42 M-v 3Ek Pan        0000    (550) Senta              20210829
00551    9.69  0.15 K2175 291.33890   70.21676    5.69105    0.39515  0.1187508  0.19268135   2.9687680  0 MPO647015  3896  63 1904-2021 0.45 M-v 3Ek Pan        0000    (551) Ortrud             20210907
00552    9.67  0.15 K2175 114.12940  346.56469  266.87378    7.69407  0.0900524  0.17647172   3.1478883  0 MPO647015  4558  53 1904-2021 0.59 M-v 3Ek Pan        0000    (552) Sigelinde          20210908
00553   12.21  0.15 K2175   3.01176  354.91259   72.34764    5.38635  0.1093304  0.29583499   2.2306753  0 MPO647015  3146  33 1904-2021 0.37 M-v 3Ek Pan        0000    (553) Kundry             20210908
00554    9.12  0.15 K2175 340.07094  127.65983  295.38823    2.93510  0.1517587  0.26933755   2.3746783  0 MPO647015  3222  63 1900-2021 0.47 M-v 3Ek Pan        0000    (554) Peraga             20210908
00555   10.84  0.15 K2175 221.77598  359.99576  130.19745    2.66822  0.1536723  0.17326775   3.1865756  0 MPO647015  3442  50 1905-2021 0.44 M-v 3Ek Pan        0000    (555) Norma              20210907
00556    9.60  0.15 K2175  39.13201  177.92181  286.04091    5.24608  0.1042628  0.25474231   2.4645369  0 MPO636068  2869  52 1907-2021 0.56 M-v 3Ek Pan        0000    (556) Phyllis            20210616
00557   12.20  0.15 K2175 184.47215  195.28172  292.79046    2.48777  0.0984853  0.25788145   2.4444959  0 MPO647015  3897  48 1905-2021 0.43 M-v 3Ek Pan        0000    (557) Violetta           20210908
00558    9.08  0.15 K2175 215.09218  311.34098  143.68952    8.37896  0.0406612  0.19841903   2.9112567  0 MPO647015  4035  58 1905-2021 0.41 M-v 3Ek Pan        0000    (558) Carmen             20210908
00559    9.57  0.15 K2175 326.27609  128.89094  112.06236    9.30172  0.0653269  0.22075797   2.7113888  0 MPO647015  3728  55 1905-2021 0.42 M-v 3Ek Pan        0000    (559) Nanon              20210830
00560   11.04  0.15 K2175 215.73713    4.32606  105.31555    8.45766  0.1584546  0.21539947   2.7561719  0 MPO647015  3317  45 1905-2021 0.39 M-v 3Ek Pan        0000    (560) Delila             20210908
00561   11.33  0.15 K2175 277.55189  318.26391  159.14285    1.54915  0.1219433  0.17474659   3.1685720  0 MPO647015  3313  41 1905-2021 0.46 M-v 3Ek Pan        0000    (561) Ingwelde           20210908
00562   10.01  0.15 K2175 292.21795  263.68645   70.58818   11.10531  0.1019190  0.18808072   3.0169853  0 MPO647015  3254  46 1905-2021 0.41 M-v 3Ek Pan        0000    (562) Salome             20210904
00563    8.44  0.15 K2175 141.60022  336.81999   85.17670   10.24303  0.2361827  0.22070480   2.7118242  0 MPO647015  3021  54 1907-2021 0.44 M-v 3Ek Pan        0000    (563) Suleika            20210822
00564   10.37  0.15 K2175 136.70512  214.90052   70.76399   17.98865  0.2771560  0.21656016   2.7463149  0 MPO647015  3297  36 1905-2021 0.39 M-v 3Ek Pan        0000    (564) Dudu               20210908
00565   10.91  0.15 K2175 216.74413  292.32955  225.67257   10.99184  0.1308264  0.25817825   2.4426221  0 MPO647015  3316  41 1905-2021 0.41 M-v 3Ek Pan        0000    (565) Marbachia          20210908
00566    8.11  0.15 K2175 101.95815  299.67806   79.54821    4.89363  0.1200923  0.15868429   3.3789370  0 MPO636069  3471  68 1905-2021 0.56 M-v 3Ek Pan        0000    (566) Stereoskopia       20210608
00567    9.19  0.15 K2175  20.48989  133.72076   58.25241    9.25491  0.0897752  0.17770695   3.1332841  0 MPO647015  3807  53 1905-2021 0.40 M-v 3Ek Pan        0000    (567) Eleutheria         20210831
00568    9.56  0.15 K2175 167.22347  173.96615  249.77258   18.39569  0.1684508  0.20158831   2.8806632  0 MPO647015  3169  51 1907-2021 0.39 M-v 3Ek Pan        0000    (568) Cheruskia          20210901
00569   10.16  0.15 K2175 181.73403  142.60152  301.69055    1.29151  0.1809433  0.22762404   2.6565866  0 MPO647015  3511  56 1909-2021 0.45 M-v 3Ek Pan        0000    (569) Misa               20210908
00570    8.77  0.15 K2175  39.66732  161.53893  223.34084    1.81668  0.1186132  0.15589421   3.4191335  0 MPO647015  4022  68 1905-2021 0.46 M-v 3Ek Pan        0000    (570) Kythera            20210829
00571   11.74  0.15 K2175 319.82537   27.38643    3.13716    5.22827  0.2433229  0.26335705   2.4104942  0 MPO647015  3386  37 1905-2021 0.39 M-v 3Ek Pan        0000    (571) Dulcinea           20210907
00572   10.88  0.15 K2175  29.92526  192.04077  194.47147   10.57564  0.1563416  0.26500673   2.4004801  0 MPO647015  3109  46 1905-2021 0.41 M-v 3Ek Pan        0000    (572) Rebekka            20210907
00573    9.53  0.15 K2175  34.11737   29.57009  342.65937    9.83084  0.1099726  0.18840626   3.0135090  0 MPO647015  4405  52 1905-2021 0.63 M-v 3Ek Pan        0000    (573) Recha              20210907
00574   12.41  0.15 K2175  54.12898   77.12703  336.65020    5.68512  0.2385530  0.29143487   2.2530718  0 MPO600179  2578  35 1905-2021 0.35 M-v 3Ek Pan        0000    (574) Reginhild          20210310
00575   10.85  0.15 K2175 155.10694  333.86478  349.60172   15.00364  0.1268712  0.24125960   2.5555221  0 MPO614063  3146  38 1905-2021 0.37 M-v 3Ek Pan        0000    (575) Renate             20210524
00576    9.41  0.15 K2175 170.88170   27.18210  299.60827   10.20322  0.1919285  0.19061146   2.9902216  0 MPO636069  3626  43 1924-2021 0.51 M-v 3Ek Pan        0000    (576) Emanuela           20210604
00577    9.39  0.15 K2175  69.49811  329.86445  328.48507    5.30166  0.1549457  0.17971727   3.1098744  0 MPO647015  3524  58 1905-2021 0.44 M-v 3Ek Pan        0000    (577) Rhea               20210908
00578    9.48  0.15 K2175 229.24814  261.41051   29.37554    6.14856  0.1921766  0.21590915   2.7518327  0 MPO636069  3652  55 1905-2021 0.57 M-v 3Ek Pan        0000    (578) Happelia           20210613
00579    7.94  0.15 K2175 140.43713  228.72030   82.65169   11.01742  0.0774724  0.18845641   3.0129744  0 MPO647015  3267  64 1907-2021 0.43 M-v 3Ek Pan        0000    (579) Sidonia            20210906
00580   10.28  0.15 K2175 346.61560  338.62520   98.91371    3.67122  0.0869646  0.17002484   3.2269666  0 MPO647015  3383  47 1905-2021 0.41 M-v 3Ek Pan        0000    (580) Selene             20210908
00581    9.81  0.15 K2175 335.99863   25.48674  102.45547   21.89560  0.0341704  0.17115050   3.2128018  0 MPO647015  2977  41 1906-2021 0.40 M-v 3Ek Pan        0000    (581) Tauntonia          20210907
00582    9.06  0.15 K2175 148.36798  310.27033  155.70322   30.03349  0.2222026  0.23379918   2.6096007  0 MPO647015  3557  49 1906-2021 0.39 M-v 3Ek Pan        0000    (582) Olympia            20210907
00583    9.25  0.15 K2175  42.97532  252.10660  257.84582    8.24332  0.1600965  0.17444264   3.1722515  0 MPO647015  3691  52 1907-2021 0.41 M-v 3Ek Pan        0000    (583) Klotilde           20210901
00584    8.58  0.15 K2175 291.30478   85.35924  282.03612   10.72372  0.2339563  0.26957870   2.3732619  0 MPO647015  2667  56 1906-2021 0.42 M-v 3Ek Pan        0000    (584) Semiramis          20210908
00585   10.49  0.15 K2175 168.10227  329.47000  180.20674    7.57149  0.1277478  0.25972325   2.4329256  0 MPO647015  3898  49 1906-2021 0.41 M-v 3Ek Pan        0000    (585) Bilkis             20210907
00586    9.43  0.15 K2175 290.16755  253.35743  228.33744    1.62771  0.0640264  0.18602036   3.0392218  0 MPO647015  3901  60 1906-2021 0.45 M-v 3Ek Pan        0000    (586) Thekla             20210908
00587   12.00  0.15 K2175 112.70991  188.47669  324.56077   24.99247  0.1666444  0.27617833   2.3353016  0 MPO647015  2454  29 1906-2021 0.39 M-v 3Ek Pan        0007    (587) Hypsipyle          20210831
00588    8.26  0.15 K2175 304.86837  133.40913  316.53682   10.31996  0.1477322  0.08290202   5.2090594  0 MPO647015  2582  56 1906-2021 0.44 M-v 3Ek Pan        0009    (588) Achilles           20210908
